STARLINK-2651
1 18654C 21044S   21326.17777204 -.00000909  00000-0 -60862-4 0  3267
2 18654  53.0539 322.9483 0001771  57.3838 352.0309 15.06405199    18
